ORBCOMM-X [-]           
1 21576U 91050C   23263.73812364  .00000559  00000+0  18297-3 0  9994
2 21576  98.4265 329.8903 0002710 318.0104  42.0877 14.42174865690496
ORBCOMM FM01 [-]        
1 23545U 95017A   23263.90844642  .00007279  00000+0  10536-2 0  9995
2 23545  69.9692 199.4894 0006886 226.1195 133.9385 14.76470681518358
ORBCOMM FM02 [-]        
1 23546U 95017B   23263.93829885  .00006723  00000+0  98648-3 0  9995
2 23546  69.9705 218.4087 0008211 215.3276 144.7328 14.75918948518016
ORBCOMM FM08 [-]        
1 25112U 97084A   23263.86749858  .00002249  00000+0  73344-3 0  9990
2 25112  45.0141 165.7585 0007965 290.1576  69.8416 14.41237631349587
ORBCOMM FM10 [-]        
1 25113U 97084B   23263.86316041  .00002390  00000+0  77740-3 0  9996
2 25113  45.0153 167.4851 0005118 266.0788  93.9476 14.41187148524734
ORBCOMM FM11 [+]        
1 25114U 97084C   23263.86338801  .00002053  00000+0  67568-3 0  9998
2 25114  45.0138 167.3767 0005864 264.8842  95.1339 14.41069197349705
ORBCOMM FM12 [-]        
1 25115U 97084D   23263.88875998  .00002097  00000+0  68935-3 0  9991
2 25115  45.0147 166.8946 0004930 268.6665  91.3619 14.41063879349505
ORBCOMM FM09 [-]        
1 25116U 97084E   23263.82596641  .00002063  00000+0  67909-3 0  9994
2 25116  45.0148 167.8217 0005714 249.1468 110.8770 14.41044422349705
